QIANFAN-81              
1 63167U 25046J   26002.89321720  .00000291  00000+0  43147-3 0  9995
2 63167  88.9782 317.6841 0016704  61.4898 298.7933 13.51010872 50342
QIANFAN-82              
1 63168U 25046K   26002.92769222  .00000282  00000+0  41828-3 0  9997
2 63168  88.9782 317.7245 0014884  68.4387 291.8349 13.50983788 50337
QIANFAN-83              
1 63169U 25046L   26002.93078002  .00000350  00000+0  43876-3 0  9999
2 63169  88.9782 317.4590 0016067  54.6120 305.6536 13.61983963 50480
QIANFAN-84              
1 63170U 25046M   26002.88126739  .00000275  00000+0  40743-3 0  9992
2 63170  88.9781 317.8619 0017835  65.2916 295.0090 13.50993926 50252
QIANFAN-85              
1 63171U 25046N   26002.95224136  .00000275  00000+0  40700-3 0  9994
2 63171  88.9781 317.7262 0015234  67.3167 292.9593 13.50984830 50335
QIANFAN-86              
1 63172U 25046P   26002.88651097  .00000287  00000+0  42637-3 0  9991
2 63172  88.9784 317.5957 0013129  71.3160 288.9415 13.50984435 50404
QIANFAN-87              
1 63173U 25046Q   26002.93193978  .00000286  00000+0  42330-3 0  9996
2 63173  88.9780 317.7019 0013763  67.1473 293.1130 13.50981932 50340
QIANFAN-88              
1 63174U 25046R   26002.94816943  .00000274  00000+0  40468-3 0  9999
2 63174  88.9782 317.6553 0014188  73.9250 286.3463 13.50988529 50370
